O3B FM10                
1 40348U 14083A   22172.15620779 -.00000024  00000+0  00000+0 0  9991
2 40348   0.0466  10.8207 0002641  79.6725 269.5348  5.00115092137005
O3B FM11                
1 40349U 14083B   22172.36959731 -.00000024  00000+0  00000+0 0  9998
2 40349   0.0502  14.4299 0002089  87.5116 258.0797  5.00115322137025
O3B FM12                
1 40350U 14083C   22172.39678310 -.00000024  00000+0  00000+0 0  9994
2 40350   0.0502  13.3870 0002651  81.2256 265.4155  5.00115237137048
O3B FM9                 
1 40351U 14083D   22171.62419326 -.00000024  00000+0  00000+0 0  9990
2 40351   0.0508  15.6217 0002591  74.7079 269.6977  5.00115374137150
DIAMOND RED             
1 42783U 17036U   22172.05443644  .00008619  00000+0  32222-3 0  9992
2 42783  97.1989 212.7275 0009009 325.2614  34.8037 15.27538690277496
DIAMOND GREEN           
1 42785U 17036W   22172.57690334  .00007352  00000+0  27527-3 0  9996
2 42785  97.1993 213.2969 0008856 324.7133  35.3519 15.27540780277649
DIAMOND BLUE            
1 42786U 17036X   22172.51039988  .00008203  00000+0  30706-3 0  9992
2 42786  97.1993 213.2249 0008878 325.4273  34.6388 15.27513119277639
LEO VANTAGE 1           
1 43113U 18004C   22172.54858638  .00002910  00000+0  23782-3 0  9992
2 43113  99.2462 252.9965 0401996 178.8864 181.3323 14.53798572224836
O3B FM15                
1 43231U 18024A   22172.28985552 -.00000024  00000+0  00000+0 0  9991
2 43231   0.0438   8.1939 0002852  85.9054 265.9311  5.00115976 78149
O3B FM16                
1 43232U 18024B   22172.34322241 -.00000024  00000+0  00000+0 0  9999
2 43232   0.0400   5.7299 0002817  88.4549 265.8453  5.00115837 78062
O3B FM14                
1 43233U 18024C   22172.18286401 -.00000024  00000+0  00000+0 0  9999
2 43233   0.0391   3.9002 0002623  90.1114 266.0160  5.00115239 78061
O3B FM13                
1 43234U 18024D   22172.43622919 -.00000024  00000+0  00000+0 0  9996
2 43234   0.0500  46.2119 0003342  61.6647 252.1577  5.00115046 78194
O3B FM20                
1 44112U 19020A   22172.40949390 -.00000024  00000+0  00000+0 0  9991
2 44112   0.0469   9.9793 0002757  91.3386 258.7109  5.00115388 58692
O3B FM19                
1 44113U 19020B   22171.63665371 -.00000024  00000+0  00000+0 0  9990
2 44113   0.0490  28.2721 0001768  55.2084 276.5373  5.00114942 58525
O3B FM17                
1 44114U 19020C   22172.51682133 -.00000024  00000+0  00000+0 0  9994
2 44114   0.0491 346.5605 0002935 109.1330 264.3378  5.00115452 58644
O3B FM18                
1 44115U 19020D   22172.26348541 -.00000024  00000+0  00000+0 0  9999
2 44115   0.0468  10.6075 0002885  80.8742 268.5491  5.00115707 58763
SALSAT                  
1 46495U 20068K   22172.55265794  .00001531  00000+0  11356-3 0  9999
2 46495  97.7297 113.8543 0014447 263.1162  96.8420 15.04533702 94807
ISS (ZARYA)             
1 25544U 98067A   22172.52448946 -.00031472  00000+0 -54985-3 0  9998
2 25544  51.6414 315.1046 0004324 287.7114 189.0903 15.49777534345853
SIMPL                   
1 42983U 98067NF  22172.42971194  .00193540  26892-4  36664-3 0  9998
2 42983  51.6262 160.2845 0005471  24.4788 335.6481 16.00304024265571
AEROCUBE 12A            
1 43556U 18046C   22172.59281222  .00018217  00000+0  46703-3 0  9998
2 43556  51.6353 163.6867 0008399  49.1405 311.0306 15.39380074219957
AEROCUBE 12B            
1 43557U 18046D   22172.59980621  .00013674  00000+0  37608-3 0  9994
2 43557  51.6367 168.1652 0008333  46.8242 313.3437 15.37447439219841
LEMUR-2-VU              
1 43558U 18046E   22172.30387228  .00032572  00000+0  64106-3 0  9999
2 43558  51.6371 147.1808 0009319  52.0832 308.0996 15.46904879220148
LEMUR-2-ALEXANDER       
1 43559U 18046F   22172.32839940  .00041765  00000+0  79943-3 0  9994
2 43559  51.6371 145.1235 0009446  51.9964 308.1876 15.47588993219957
LEMUR-2-YUASA           
1 43560U 18046G   22172.33757050  .00037731  00000+0  74173-3 0  9996
2 43560  51.6371 147.4075 0009245  56.3163 303.8705 15.46867144220146
LEMUR-2-TOMHENDERSON    
1 43561U 18046H   22172.06842408  .00035030  00000+0  73352-3 0  9997
2 43561  51.6384 151.5682 0008470  59.8999 300.2827 15.45066007219620
ISS DEB (SEDA-AP)       
1 43870U 98067PU  22172.36652054  .00078673  00000+0  32423-3 0  9994
2 43870  51.6292 210.2547 0005617 342.9665  17.1149 15.85204090199550
ISS DEB                 
1 44303U 98067QA  22172.52309667  .00290362  46664-4  54605-3 0  9991
2 44303  51.6234 231.7642 0007711 345.3848  14.6938 16.00300183174558
ISS DEB                 
1 44306U 98067QD  22165.48862041  .09296357  12591-4  30686-3 0  9995
2 44306  51.6113 260.2045 0007588 306.8573  53.1759 16.44205263173559
RED-EYE 1 (PINOT)       
1 44364U 98067QJ  22172.46375294  .00232881  32239-4  59217-3 0  9999
2 44364  51.6294 235.2221 0007006 329.4765  30.5834 15.94945486170091
STPSAT-4                
1 45043U 98067QY  22172.46642211  .00078803  00000+0  48569-3 0  9996
2 45043  51.6345 275.9347 0004180 279.4029  80.6498 15.76461969136138
PHOENIX                 
1 45258U 98067RB  22163.82960323  .11428466  12633-4  25365-3 0  9996
2 45258  51.6194 294.3376 0009579 296.6520  63.3527 16.45855778131755
SORTIE                  
1 45264U 98067RH  22172.51508187  .00094806  00000+0  51080-3 0  9993
2 45264  51.6382 270.3067 0004016 280.6673  79.3876 15.79399692132888
ICS-EF (ISS DEB)        
1 45265U 98067RJ  22172.62113651  .00025406  00000+0  28358-3 0  9996
2 45265  51.6373 291.2328 0004167 221.6003 138.4674 15.62608710132294
RED-EYE 2 (MERLOT)      
1 45800U 98067RM  22172.60447940  .00056998  00000+0  45984-3 0  9994
2 45800  51.6385 282.9407 0002984 278.4202  81.6457 15.70303478114260
RED-EYE 3 (CABERNET)    
1 45809U 98067RN  22172.60692813  .00056653  00000+0  45821-3 0  9992
2 45809  51.6386 282.9605 0002897 270.3626  89.7039 15.70245323113240
SPOC                    
1 46921U 98067RR  22172.49273193  .01543858  11803-4  91088-3 0  9994
2 46921  51.6187 264.6252 0012749 329.0457  30.9808 16.17690546 92679
NEUTRON-1               
1 46923U 98067RT  22172.29574709  .01513110  18645-2  10602-2 0  9990
2 46923  51.6198 266.3321 0013664 335.2576  24.7783 16.15811976 92669
DESCENT                 
1 46927U 98067RX  22167.78829181  .02162638  11925-4  89836-3 0  9997
2 46927  51.6205 288.7123 0013771 316.3870  43.6060 16.22123932 91872
ISS DEB                 
1 47853U 98067RZ  22172.51336485  .00009006  00000+0  14483-3 0  9993
2 47853  51.6416 310.0972 0002222  25.1335 334.9763 15.53796591 72545
TSURU                   
1 47927U 98067SD  22172.47393031  .00534462  13672-3  98931-3 0  9992
2 47927  51.6273 279.6310 0012484 326.3685  33.6531 16.00402948 72447
MAYA-2                  
1 47929U 98067SF  22172.55064126  .00488147  11335-3  96025-3 0  9997
2 47929  51.6272 279.3955 0012160 326.1900  33.8333 15.99357250 72410
GUARANISAT-1            
1 47931U 98067SH  22172.33250779  .00548572  14387-3  10141-2 0  9990
2 47931  51.6248 280.1938 0012370 326.6936  33.3294 16.00427396 72428
MMSATS-1                
1 47976U 98067SJ  22172.55582191  .00025231  00000+0  32038-3 0  9994
2 47976  51.6417 304.3338 0000860  16.7332 343.3688 15.59248000 70904
TIANHE                  
1 48274U 21035A   22172.50625943  .00014576  00000+0  17609-3 0  9992
2 48274  41.4702 192.6674 0004384 309.2845 176.4907 15.60419320 65444
ISS DEB                 
1 48833U 98067SK  22172.07014823  .00049811  00000+0  50057-3 0  9997
2 48833  51.6366 304.0752 0001966 326.9567  33.1305 15.64952297 59724
RAMSAT                  
1 48850U 98067SL  22172.41662442  .00073911  00000+0  57490-3 0  9996
2 48850  51.6367 297.3927 0001796 343.8830  16.2110 15.71075519 57954
BD-28                   
1 48867U 98067SN  22172.07580729  .00103086  00000+0  67072-3 0  9997
2 48867  51.6309 296.5565 0002832 300.9898  59.0823 15.75120391 56685
ISS (NAUKA)             
1 49044U 21066A   22172.52448946 -.00031472  00000+0 -54985-3 0  9994
2 49044  51.6414 315.1046 0004324 287.7114 189.0903 15.49777534345854
TIANZHOU-3              
1 49222U 21085A   22172.50625943  .00014576  00000+0  17609-3 0  9991
2 49222  41.4702 192.6674 0004384 309.2845 176.4907 15.60419320 65448
FREGAT DEB              
1 49271U 11037PF  22171.86363107 -.00019761  00000+0 -12874+0 0  9998
2 49271  51.6430 223.9434 0754891  49.6293 316.7999 11.87596955 47593
BINAR-1                 
1 49272U 98067SR  22172.55983316  .00082229  00000+0  63917-3 0  9999
2 49272  51.6346 300.5695 0005979 311.0158  49.0322 15.71029566 40318
MAYA-3                  
1 49273U 98067SS  22172.55087143  .00196777  00000+0  92776-3 0  9992
2 49273  51.6294 295.9654 0009205 314.4546  45.5702 15.81919641 40379
MAYA-4                  
1 49274U 98067ST  22172.51463914  .00185331  00000+0  91172-3 0  9996
2 49274  51.6327 296.4798 0008544 311.5668  48.4601 15.81044062 40365
CUAVA-1                 
1 49275U 98067SU  22172.54481280  .00129559  00000+0  80950-3 0  9998
2 49275  51.6344 298.0695 0006167 311.6214 106.3647 15.75928954 40296
CAPSAT                  
1 49276U 98067SV  22172.46351193  .00100984  00000+0  74753-3 0  9994
2 49276  51.6381 301.4507 0006268 315.8435  44.2062 15.72102135 39350
PR-CUNAR 2              
1 49277U 98067SW  22172.44476473  .00125871  00000+0  79927-3 0  9992
2 49277  51.6272 299.7282 0007777 314.5502  45.4862 15.75558067 39348
1998-067TD              
1 51441U 98067TD  22172.54862261  .00049632  00000+0  55251-3 0  9997
2 51441  51.6380 308.7702 0007739 258.5630 101.4495 15.62314464 22815
PATCOOL                 
1 51442U 98067TE  22172.39876973  .00055790  00000+0  61291-3 0  9999
2 51442  51.6370 309.2583 0007850 262.8744  97.1357 15.62603398 22754
DAILI                   
1 51443U 98067TF  22172.47200832  .01243008  87546-3  18669-2 0  9990
2 51443  51.6258 298.3792 0016347 310.6709  49.2881 16.03944361 22860
